IRIDIUM 112             
1 41925U 17003J   23341.79373425  .00000058  00000+0  13478-4 0  9994
2 41925  86.3960 113.8233 0001895  96.9264 263.2148 14.34214441361098
IRIDIUM 111             
1 41926U 17003K   23342.40896319  .00000317  00000+0  10628-3 0  9997
2 41926  86.3958 113.6155 0002231 100.3581 259.7866 14.34217954361206
IRIDIUM 113             
1 42803U 17039A   23341.55170629  .00000356  00000+0  12021-3 0  9997
2 42803  86.3972 347.7261 0002069  98.6119 261.5311 14.34218467338941
IRIDIUM 123             
1 42804U 17039B   23341.52341052  .00000288  00000+0  95593-4 0  9995
2 42804  86.3985  19.2285 0002143  98.0328 262.1111 14.34220112337700
IRIDIUM 120             
1 42805U 17039C   23342.45235612  .00000316  00000+0  10575-3 0  9991
2 42805  86.3959 347.2516 0002179  94.0163 266.1281 14.34216822339061
IRIDIUM 115             
1 42806U 17039D   23341.53296756  .00000425  00000+0  12049-3 0  9995
2 42806  86.4498 347.6320 0002215  94.5986 265.5468 14.43251060341186
IRIDIUM 118             
1 42807U 17039E   23341.55512633  .00000048  00000+0  99250-5 0  9995
2 42807  86.3983  19.2177 0002177  95.0101 265.1343 14.34217393337701
IRIDIUM 117             
1 42808U 17039F   23341.57415315  .00000275  00000+0  91188-4 0  9990
2 42808  86.3984  19.1756 0002248  96.7704 263.3748 14.34219274337733
